

*******************************************************************************
Ephemeris / WWW_USER Wed Mar 13 03:23:22 2024 Pasadena, USA      / Horizons
*******************************************************************************
Target body name: SOHO (spacecraft) (-21)         {source: SOHO_merged}
Center body name: Earth (399)                     {source: DE441}
Center-site name: BODY CENTER
*******************************************************************************
Start time      : A.D. 1996-Feb-13 00:00:00.0000 TDB
Stop  time      : A.D. 1996-Feb-16 00:00:00.0000 TDB
Step-size       : 1 minutes
*******************************************************************************
Center geodetic : 0.0, 0.0, 0.0                   {E-lon(deg),Lat(deg),Alt(km)}
Center cylindric: 0.0, 0.0, 0.0                   {E-lon(deg),Dxy(km),Dz(km)}
Center radii    : 6378.137, 6378.137, 6356.752 km {Equator_a, b, pole_c}
Output units    : KM-S
Calendar mode   : Mixed Julian/Gregorian
Output type     : GEOMETRIC cartesian states
Output format   : 2 (position and velocity)
EOP file        : eop.240312.p240605
EOP coverage    : DATA-BASED 1962-JAN-20 TO 2024-MAR-12. PREDICTS-> 2024-JUN-04
Reference frame : ICRF
*******************************************************************************
            JDTDB,            Calendar Date (TDB),                      X,                      Y,                      Z,                     VX,                     VY,                     VZ,
**************************************************************************************************************************************************************************************************
$$SOE
2450127.958333333, A.D. 1996-Feb-14 11:00:00.0000,  6.864312614513966E+05, -1.126227896529568E+06, -4.504158548613802E+05,  3.109846103123339E-01,  2.234686846204561E-01,  1.509066319201571E-01,
2450127.959027778, A.D. 1996-Feb-14 11:01:00.0000,  6.864499204701054E+05, -1.126214488354495E+06, -4.504067997744968E+05,  3.109846968717827E-01,  2.234787340174509E-01,  1.509103640526988E-01,
2450127.959722222, A.D. 1996-Feb-14 11:02:00.0000,  6.864685795470440E+05, -1.126201073190781E+06, -4.503977445839049E+05,  3.109847804680614E-01,  2.234887845761415E-01,  1.509141016611045E-01,
2450127.960416667, A.D. 1996-Feb-14 11:03:00.0000,  6.864872386221021E+05, -1.126187655469525E+06, -4.503886892167630E+05,  3.109848627852713E-01,  2.234988351732366E-01,  1.509178408318248E-01,
2450127.961111111, A.D. 1996-Feb-14 11:04:00.0000,  6.865058976865701E+05, -1.126174235803787E+06, -4.503796336731657E+05,  3.109849440162086E-01,  2.235088857092697E-01,  1.509215811343334E-01,
2450127.961805556, A.D. 1996-Feb-14 11:05:00.0000,  6.865245567342987E+05, -1.126160814707316E+06, -4.503705779543720E+05,  3.109850243195611E-01,  2.235189361275883E-01,  1.509253222292433E-01,
2450127.962500000, A.D. 1996-Feb-14 11:06:00.0000,  6.865432157599672E+05, -1.126147392733308E+06, -4.503615220598468E+05,  3.109851038755306E-01,  2.235289863757395E-01,  1.509290637378697E-01,
2450127.963194444, A.D. 1996-Feb-14 11:07:00.0000,  6.865618747594736E+05, -1.126133970449321E+06, -4.503524659874833E+05,  3.109851828771122E-01,  2.235390364096770E-01,  1.509328052611626E-01,
2450127.963888889, A.D. 1996-Feb-14 11:08:00.0000,  6.865805337302926E+05, -1.126120548411582E+06, -4.503434097338640E+05,  3.109852615209099E-01,  2.235490861978374E-01,  1.509365463993514E-01,
2450127.964583333, A.D. 1996-Feb-14 11:09:00.0000,  6.865991926717898E+05, -1.126107127139577E+06, -4.503343532945603E+05,  3.109853399978005E-01,  2.235591357249053E-01,  1.509402867716162E-01,
2450127.965277778, A.D. 1996-Feb-14 11:10:00.0000,  6.866178515854763E+05, -1.126093707091753E+06, -4.503252966644532E+05,  3.109854184837502E-01,  2.235691849950917E-01,  1.509440260350946E-01,
2450127.965972222, A.D. 1996-Feb-14 11:11:00.0000,  6.866365104751906E+05, -1.126080288643174E+06, -4.503162398380664E+05,  3.109854971310930E-01,  2.235792340347617E-01,  1.509477639025511E-01,
2450127.966666667, A.D. 1996-Feb-14 11:12:00.0000,  6.866551692219193E+05, -1.126066876593942E+06, -4.503071827797115E+05,  3.109855774189781E-01,  2.235892813547280E-01,  1.509514962941435E-01,
2450127.967361111, A.D. 1996-Feb-14 11:13:00.0000,  6.866738279655071E+05, -1.126053466356715E+06, -4.502981255157866E+05,  3.109856580075328E-01,  2.235993286419002E-01,  1.509552271234213E-01,
2450127.968055556, A.D. 1996-Feb-14 11:14:00.0000,  6.866924867321471E+05, -1.126040057405320E+06, -4.502890680453401E+05,  3.109857387704194E-01,  2.236093761825115E-01,  1.509589568209110E-01,
2450127.968750000, A.D. 1996-Feb-14 11:15:00.0000,  6.867111455439485E+05, -1.126026649300085E+06, -4.502800103667870E+05,  3.109858196005134E-01,  2.236194242097309E-01,  1.509626857259992E-01,
2450127.969444444, A.D. 1996-Feb-14 11:16:00.0000,  6.867298044227762E+05, -1.126013241535677E+06, -4.502709524791383E+05,  3.109859003625109E-01,  2.236294729521881E-01,  1.509664142173709E-01,
2450127.970138889, A.D. 1996-Feb-14 11:17:00.0000,  6.867484633892850E+05, -1.125999833564485E+06, -4.502618943820430E+05,  3.109859808984285E-01,  2.236395226234703E-01,  1.509701426940762E-01,
2450127.970833333, A.D. 1996-Feb-14 11:18:00.0000,  6.867671224619643E+05, -1.125986424821361E+06, -4.502528360758044E+05,  3.109860610337856E-01,  2.236495734119096E-01,  1.509738715558855E-01,
2450127.971527778, A.D. 1996-Feb-14 11:19:00.0000,  6.867857816562345E+05, -1.125973014748876E+06, -4.502437775613667E+05,  3.109861405842754E-01,  2.236596254710104E-01,  1.509776011836189E-01,
2450127.972222222, A.D. 1996-Feb-14 11:20:00.0000,  6.868044409836228E+05, -1.125959602822285E+06, -4.502347188402730E+05,  3.109862193627162E-01,  2.236696789108619E-01,  1.509813319201386E-01,
2450127.972916667, A.D. 1996-Feb-14 11:21:00.0000,  6.868231004510437E+05, -1.125946188573379E+06, -4.502256599145964E+05,  3.109862971860790E-01,  2.236797337908602E-01,  1.509850640526802E-01,
2450127.973611111, A.D. 1996-Feb-14 11:22:00.0000,  6.868417602368101E+05, -1.125932768050386E+06, -4.502166007566567E+05,  3.109863733541103E-01,  2.236897925893633E-01,  1.509888016610860E-01,
2450127.974305556, A.D. 1996-Feb-14 11:23:00.0000,  6.868604201521534E+05, -1.125919344690396E+06, -4.502075414008772E+05,  3.109864482654613E-01,  2.236998526578930E-01,  1.509925408318063E-01,
2450127.975000000, A.D. 1996-Feb-14 11:24:00.0000,  6.868790801659455E+05, -1.125905918746293E+06, -4.501984818539037E+05,  3.109865218533044E-01,  2.237099135779216E-01,  1.509962811343149E-01,
2450127.975694444, A.D. 1996-Feb-14 11:25:00.0000,  6.868977402499305E+05, -1.125892490419742E+06, -4.501894221208927E+05,  3.109865940534922E-01,  2.237199749926400E-01,  1.510000222292248E-01,
2450127.976388889, A.D. 1996-Feb-14 11:26:00.0000,  6.869164003730433E+05, -1.125879059986695E+06, -4.501803622063333E+05,  3.109866648264701E-01,  2.237300365279521E-01,  1.510037637378513E-01,
2450127.977083333, A.D. 1996-Feb-14 11:27:00.0000,  6.869350605025830E+05, -1.125865627784195E+06, -4.501713021137273E+05,  3.109867341583031E-01,  2.237400978089075E-01,  1.510075052611441E-01,
2450127.977777778, A.D. 1996-Feb-14 11:28:00.0000,  6.869537206054404E+05, -1.125852194195374E+06, -4.501622418452868E+05,  3.109868020610378E-01,  2.237501584762195E-01,  1.510112463993329E-01,
2450127.978472222, A.D. 1996-Feb-14 11:29:00.0000,  6.869723806493426E+05, -1.125838759633131E+06, -4.501531814016689E+05,  3.109868685723895E-01,  2.237602182023273E-01,  1.510149867715976E-01,
2450127.979166667, A.D. 1996-Feb-14 11:30:00.0000,  6.869910406040761E+05, -1.125825324523016E+06, -4.501441207817520E+05,  3.109869337547634E-01,  2.237702767064554E-01,  1.510187260350761E-01,
2450127.979861111, A.D. 1996-Feb-14 11:31:00.0000,  6.870097004426598E+05, -1.125811889285857E+06, -4.501350599824666E+05,  3.109869976936207E-01,  2.237803337681478E-01,  1.510224639025325E-01,
2450127.980555556, A.D. 1996-Feb-14 11:32:00.0000,  6.870283600065769E+05, -1.125798455679043E+06, -4.501259990801931E+05,  3.109870599669494E-01,  2.237903859484199E-01,  1.510261962941250E-01,
2450127.981250000, A.D. 1996-Feb-14 11:33:00.0000,  6.870470194206215E+05, -1.125785022641287E+06, -4.501169379823891E+05,  3.109871212519870E-01,  2.238004366241644E-01,  1.510299271234028E-01,
2450127.981944445, A.D. 1996-Feb-14 11:34:00.0000,  6.870656786898732E+05, -1.125771590315767E+06, -4.501078766699212E+05,  3.109871817514195E-01,  2.238104862129613E-01,  1.510336568208924E-01,
2450127.982638889, A.D. 1996-Feb-14 11:35:00.0000,  6.870843378193293E+05, -1.125758158846620E+06, -4.500988151257697E+05,  3.109872416523634E-01,  2.238205350590357E-01,  1.510373857259807E-01,
2450127.983333333, A.D. 1996-Feb-14 11:36:00.0000,  6.871029968188063E+05, -1.125744728322851E+06, -4.500897533325322E+05,  3.109873011395715E-01,  2.238305835418268E-01,  1.510411142173523E-01,
2450127.984027778, A.D. 1996-Feb-14 11:37:00.0000,  6.871216557025106E+05, -1.125731298775838E+06, -4.500806912730683E+05,  3.109873603884699E-01,  2.238406320573620E-01,  1.510448426940576E-01,
2450127.984722222, A.D. 1996-Feb-14 11:38:00.0000,  6.871403144884938E+05, -1.125717870178453E+06, -4.500716289311501E+05,  3.109874195584593E-01,  2.238506809990980E-01,  1.510485715558670E-01,
2450127.985416667, A.D. 1996-Feb-14 11:39:00.0000,  6.871589731980140E+05, -1.125704442445826E+06, -4.500625662920952E+05,  3.109874787866909E-01,  2.238607307388807E-01,  1.510523011836004E-01,
2450127.986111111, A.D. 1996-Feb-14 11:40:00.0000,  6.871776318548111E+05, -1.125691015437715E+06, -4.500535033433613E+05,  3.109875381825092E-01,  2.238707816086752E-01,  1.510560319201200E-01,
2450127.986805555, A.D. 1996-Feb-14 11:41:00.0000,  6.871962904843268E+05, -1.125677588962466E+06, -4.500444400750883E+05,  3.109875978227520E-01,  2.238808338837044E-01,  1.510597640526617E-01,
